STARLINK-2612
1 28379C 21038AC  21325.13488912  .00039677  00000-0  26580-2 0  3252
2 28379  53.0524 197.6268 0001897  74.7393 130.9022 15.06364225    11
